{"type": "FeatureCollection", "features": [ {"type": "Feature", "properties": {"norad_id": 36012, "name": "IRIDIUM 33 DEB", "group": "iridium-33-debris", "lat": 0.9947114335892565, "lon": 122.0301630620057, "alt_km": 714.3896443380308, "timestamp": "2025-12-26T05:31:12.892203+00:00", "meta": {"OBJECT_NAME": "IRIDIUM 33 DEB", "OBJECT_ID": "1997-051UT", "EPOCH": "2025-12-23T02:12:50.688576", "MEAN_MOTION": 14.19255751, "ECCENTRICITY": 0.02111422, "INCLINATION": 86.4409, "RA_OF_ASC_NODE": 303.3574, "ARG_OF_PERICENTER": 229.8799, "MEAN_ANOMALY": 128.3722, "EPHEMERIS_TYPE": 0, "CLASSIFICATION_TYPE": "U", "NORAD_CAT_ID": 36012, "ELEMENT_SET_NO": 999, "REV_AT_EPOCH": 65631, "BSTAR": 0.004288895, "MEAN_MOTION_DOT": 0.00011258, "MEAN_MOTION_DDOT": 0}, "tle": {"line1": "1 36012U 97051UT  25357.09225334  .00011258  00000+0  42889-2 0  9993", "line2": "2 36012  86.4409 303.3574 0211142 229.8799 128.3722 14.19255751656313"}}, "geometry": {"type": "Point", "coordinates": [122.0301630620057, 0.9947114335892565]}}, {"type": "Feature", "properties": {"norad_id": 36028, "name": "IRIDIUM 33 DEB", "group": "iridium-33-debris", "lat": 9.191171324402632, "lon": -59.05163543483306, "alt_km": 567.6173274442681, "timestamp": "2025-12-26T05:31:12.892214+00:00", "meta": {"OBJECT_NAME": "IRIDIUM 33 DEB", "OBJECT_ID": "1997-051VK", "EPOCH": "2025-12-24T13:20:34.772064", "MEAN_MOTION": 14.95853711, "ECCENTRICITY": 0.001968, "INCLINATION": 86.323, "RA_OF_ASC_NODE": 301.1398, "ARG_OF_PERICENTER": 16.6795, "MEAN_ANOMALY": 343.5078, "EPHEMERIS_TYPE": 0, "CLASSIFICATION_TYPE": "U", "NORAD_CAT_ID": 36028, "ELEMENT_SET_NO": 999, "REV_AT_EPOCH": 87301, "BSTAR": 0.0024246454, "MEAN_MOTION_DOT": 0.00027287, "MEAN_MOTION_DDOT": 0}, "tle": {"line1": "1 36028U 97051VK  25358.55595801  .00027287  00000+0  24246-2 0  9997", "line2": "2 36028  86.3230 301.1398 0019680  16.6795 343.5078 14.95853711873019"}}, "geometry": {"type": "Point", "coordinates": [-59.05163543483306, 9.191171324402632]}}, {"type": "Feature", "properties": {"norad_id": 36080, "name": "IRIDIUM 33 DEB", "group": "iridium-33-debris", "lat": 11.93188696917076, "lon": 2.8895034391924326, "alt_km": 740.5041634590207, "timestamp": "2025-12-26T05:31:12.892224+00:00", "meta": {"OBJECT_NAME": "IRIDIUM 33 DEB", "OBJECT_ID": "1997-051VM", "EPOCH": "2025-12-19T07:27:26.572608", "MEAN_MOTION": 14.4663152, "ECCENTRICITY": 0.0018893, "INCLINATION": 86.3193, "RA_OF_ASC_NODE": 5.1242, "ARG_OF_PERICENTER": 135.9522, "MEAN_ANOMALY": 224.319, "EPHEMERIS_TYPE": 0, "CLASSIFICATION_TYPE": "U", "NORAD_CAT_ID": 36080, "ELEMENT_SET_NO": 999, "REV_AT_EPOCH": 47509, "BSTAR": 0.00042458, "MEAN_MOTION_DOT": 1.555e-05, "MEAN_MOTION_DDOT": 0}, "tle": {"line1": "1 36080U 97051VM  25353.31072422  .00001555  00000+0  42458-3 0  9999", "line2": "2 36080  86.3193   5.1242 0018893 135.9522 224.3190 14.46631520475097"}}, "geometry": {"type": "Point", "coordinates": [2.8895034391924326, 11.93188696917076]}}, {"type": "Feature", "properties": {"norad_id": 36083, "name": "IRIDIUM 33 DEB", "group": "iridium-33-debris", "lat": -60.15163535635734, "lon": 21.944536394986645, "alt_km": 765.0722034441569, "timestamp": "2025-12-26T05:31:12.892234+00:00", "meta": {"OBJECT_NAME": "IRIDIUM 33 DEB", "OBJECT_ID": "1997-051VQ", "EPOCH": "2025-12-24T08:52:23.766528", "MEAN_MOTION": 14.43245731, "ECCENTRICITY": 0.00265084, "INCLINATION": 86.3425, "RA_OF_ASC_NODE": 29.1454, "ARG_OF_PERICENTER": 183.5397, "MEAN_ANOMALY": 176.562, "EPHEMERIS_TYPE": 0, "CLASSIFICATION_TYPE": "U", "NORAD_CAT_ID": 36083, "ELEMENT_SET_NO": 999, "REV_AT_EPOCH": 85617, "BSTAR": 0.00051614904, "MEAN_MOTION_DOT": 1.763e-05, "MEAN_MOTION_DDOT": 0}, "tle": {"line1": "1 36083U 97051VQ  25358.36971952  .00001763  00000+0  51615-3 0  9994", "line2": "2 36083  86.3425  29.1454 0026508 183.5397 176.5620 14.43245731856170"}}, "geometry": {"type": "Point", "coordinates": [21.944536394986645, -60.15163535635734]}}, {"type": "Feature", "properties": {"norad_id": 36390, "name": "IRIDIUM 33 DEB", "group": "iridium-33-debris", "lat": 24.324535397531644, "lon": 111.53012970412117, "alt_km": 630.654976894788, "timestamp": "2025-12-26T05:31:12.892244+00:00", "meta": {"OBJECT_NAME": "IRIDIUM 33 DEB", "OBJECT_ID": "1997-051VU", "EPOCH": "2025-12-25T02:44:48.274368", "MEAN_MOTION": 14.737665, "ECCENTRICITY": 0.00323952, "INCLINATION": 86.292, "RA_OF_ASC_NODE": 293.7212, "ARG_OF_PERICENTER": 120.9212, "MEAN_ANOMALY": 239.5197, "EPHEMERIS_TYPE": 0, "CLASSIFICATION_TYPE": "U", "NORAD_CAT_ID": 36390, "ELEMENT_SET_NO": 999, "REV_AT_EPOCH": 66444, "BSTAR": 0.0011373598, "MEAN_MOTION_DOT": 7.522e-05, "MEAN_MOTION_DDOT": 0}, "tle": {"line1": "1 36390U 97051VU  25359.11444762  .00007522  00000+0  11374-2 0  9999", "line2": "2 36390  86.2920 293.7212 0032395 120.9212 239.5197 14.73766500664444"}}, "geometry": {"type": "Point", "coordinates": [111.53012970412117, 24.324535397531644]}}, {"type": "Feature", "properties": {"norad_id": 36483, "name": "IRIDIUM 33 DEB", "group": "iridium-33-debris", "lat": -49.27609198150279, "lon": -129.06671725800265, "alt_km": 752.4749897451939, "timestamp": "2025-12-26T05:31:12.892254+00:00", "meta": {"OBJECT_NAME": "IRIDIUM 33 DEB", "OBJECT_ID": "1997-051VZ", "EPOCH": "2025-12-24T20:54:18.257760", "MEAN_MOTION": 14.45850229, "ECCENTRICITY": 0.0011373, "INCLINATION": 86.3782, "RA_OF_ASC_NODE": 47.2957, "ARG_OF_PERICENTER": 92.8078, "MEAN_ANOMALY": 267.4426, "EPHEMERIS_TYPE": 0, "CLASSIFICATION_TYPE": "U", "NORAD_CAT_ID": 36483, "ELEMENT_SET_NO": 999, "REV_AT_EPOCH": 65321, "BSTAR": 0.0005014, "MEAN_MOTION_DOT": 1.8e-05, "MEAN_MOTION_DDOT": 0}, "tle": {"line1": "1 36483U 97051VZ  25358.87104465  .00001800  00000+0  50140-3 0  9995", "line2": "2 36483  86.3782  47.2957 0011373  92.8078 267.4426 14.45850229653211"}}, "geometry": {"type": "Point", "coordinates": [-129.06671725800265, -49.27609198150279]}}, {"type": "Feature", "properties": {"norad_id": 36490, "name": "IRIDIUM 33 DEB", "group": "iridium-33-debris", "lat": 14.777955206188285, "lon": -176.58401926860992, "alt_km": 642.951824948499, "timestamp": "2025-12-26T05:31:12.892264+00:00", "meta": {"OBJECT_NAME": "IRIDIUM 33 DEB", "OBJECT_ID": "1997-051WG", "EPOCH": "2025-12-23T18:13:03.957312", "MEAN_MOTION": 14.76410999, "ECCENTRICITY": 0.00050592, "INCLINATION": 86.3652, "RA_OF_ASC_NODE": 5.4915, "ARG_OF_PERICENTER": 59.5237, "MEAN_ANOMALY": 300.6482, "EPHEMERIS_TYPE": 0, "CLASSIFICATION_TYPE": "U", "NORAD_CAT_ID": 36490, "ELEMENT_SET_NO": 999, "REV_AT_EPOCH": 86647, "BSTAR": 0.0016428856, "MEAN_MOTION_DOT": 0.00011451, "MEAN_MOTION_DDOT": 0}, "tle": {"line1": "1 36490U 97051WG  25357.75907358  .00011451  00000+0  16429-2 0  9995", "line2": "2 36490  86.3652   5.4915 0005059  59.5237 300.6482 14.76410999866472"}}, "geometry": {"type": "Point", "coordinates": [-176.58401926860992, 14.777955206188285]}}, {"type": "Feature", "properties": {"norad_id": 36493, "name": "IRIDIUM 33 DEB", "group": "iridium-33-debris", "lat": -84.91527595174955, "lon": -40.04297781201651, "alt_km": 678.6048172345563, "timestamp": "2025-12-26T05:31:12.892274+00:00", "meta": {"OBJECT_NAME": "IRIDIUM 33 DEB", "OBJECT_ID": "1997-051WK", "EPOCH": "2025-12-23T07:26:33.103968", "MEAN_MOTION": 14.65359392, "ECCENTRICITY": 0.00090124, "INCLINATION": 86.3569, "RA_OF_ASC_NODE": 6.9826, "ARG_OF_PERICENTER": 326.7527, "MEAN_ANOMALY": 33.3119, "EPHEMERIS_TYPE": 0, "CLASSIFICATION_TYPE": "U", "NORAD_CAT_ID": 36493, "ELEMENT_SET_NO": 999, "REV_AT_EPOCH": 74673, "BSTAR": 0.0013164613, "MEAN_MOTION_DOT": 7.136e-05, "MEAN_MOTION_DDOT": 0}, "tle": {"line1": "1 36493U 97051WK  25357.31010537  .00007136  00000+0  13165-2 0  9993", "line2": "2 36493  86.3569   6.9826 0009012 326.7527  33.3119 14.65359392746733"}}, "geometry": {"type": "Point", "coordinates": [-40.04297781201651, -84.91527595174955]}}, {"type": "Feature", "properties": {"norad_id": 37548, "name": "IRIDIUM 33 DEB", "group": "iridium-33-debris", "lat": 36.49767136712162, "lon": -145.20560877589432, "alt_km": 700.3426636347604, "timestamp": "2025-12-26T05:31:12.892284+00:00", "meta": {"OBJECT_NAME": "IRIDIUM 33 DEB", "OBJECT_ID": "1997-051XH", "EPOCH": "2025-12-15T20:39:30.861504", "MEAN_MOTION": 14.51326297, "ECCENTRICITY": 0.00258157, "INCLINATION": 86.3522, "RA_OF_ASC_NODE": 42.0105, "ARG_OF_PERICENTER": 178.4192, "MEAN_ANOMALY": 181.71, "EPHEMERIS_TYPE": 0, "CLASSIFICATION_TYPE": "U", "NORAD_CAT_ID": 37548, "ELEMENT_SET_NO": 999, "REV_AT_EPOCH": 65577, "BSTAR": 0.00067405053, "MEAN_MOTION_DOT": 2.715e-05, "MEAN_MOTION_DDOT": 0}, "tle": {"line1": "1 37548U 97051XH  25349.86077386  .00002715  00000+0  67405-3 0  9996", "line2": "2 37548  86.3522  42.0105 0025815 178.4192 181.7100 14.51326297655778"}}, "geometry": {"type": "Point", "coordinates": [-145.20560877589432, 36.49767136712162]}}, {"type": "Feature", "properties": {"norad_id": 37550, "name": "IRIDIUM 33 DEB", "group": "iridium-33-debris", "lat": -52.66117843651148, "lon": -157.34105555983803, "alt_km": 680.0484347856855, "timestamp": "2025-12-26T05:31:12.892294+00:00", "meta": {"OBJECT_NAME": "IRIDIUM 33 DEB", "OBJECT_ID": "1997-051XK", "EPOCH": "2025-12-23T19:10:49.593504", "MEAN_MOTION": 14.67349531, "ECCENTRICITY": 0.00055645, "INCLINATION": 86.3769, "RA_OF_ASC_NODE": 18.9721, "ARG_OF_PERICENTER": 86.6044, "MEAN_ANOMALY": 273.5807, "EPHEMERIS_TYPE": 0, "CLASSIFICATION_TYPE": "U", "NORAD_CAT_ID": 37550, "ELEMENT_SET_NO": 999, "REV_AT_EPOCH": 86495, "BSTAR": 0.0012621421, "MEAN_MOTION_DOT": 7.151e-05, "MEAN_MOTION_DDOT": 0}, "tle": {"line1": "1 37550U 97051XK  25357.79918511  .00007151  00000+0  12621-2 0  9992", "line2": "2 37550  86.3769  18.9721 0005564  86.6044 273.5807 14.67349531864954"}}, "geometry": {"type": "Point", "coordinates": [-157.34105555983803, -52.66117843651148]}}]}